     2              NAVIGATION DATA                         RINEX VERSION / TYPE
CCRINEXN V1.6.0 UX  CDDIS               02-MAR-16 15:33     PGM / RUN BY / DATE 
IGS BROADCAST EPHEMERIS FILE                                COMMENT             
    0.1397D-07  0.0000D+00 -0.5960D-07  0.5960D-07          ION ALPHA           
    0.1106D+06 -0.3277D+05 -0.2621D+06  0.1966D+06          ION BETA            
   -0.186264514923D-08-0.115463194561D-13   319488     1886 DELTA-UTC: A0,A1,T,W
    17                                                      LEAP SECONDS        
                                                            END OF HEADER       
 7 16  3  1  2  0  0.0 0.467382837087D-03-0.170530256582D-11 0.000000000000D+00
    0.630000000000D+02 0.395000000000D+02 0.453590322429D-08-0.782401994526D+00
    0.217184424400D-05 0.908905384131D-02 0.529363751411D-05 0.515366937447D+04
    0.180000000000D+06 0.163912773132D-06 0.250455823485D+01 0.800937414169D-07
    0.967314892411D+00 0.278218750000D+03-0.268156588916D+01-0.821998525252D-08
    0.885751180806D-10 0.100000000000D+01 0.188600000000D+04 0.000000000000D+00
    0.400000000000D+01 0.000000000000D+00-0.111758708954D-07 0.630000000000D+02
    0.172818000000D+06 0.400000000000D+01 0.000000000000D+00 0.000000000000D+00
 9 16  3  1  2  0  0.0 0.808201730251D-04 0.761701812735D-11 0.000000000000D+00
    0.620000000000D+02 0.392812500000D+02 0.452983154281D-08 0.201229151794D+01
    0.210292637348D-05 0.650831614621D-03 0.896677374840D-05 0.515362957001D+04
    0.180000000000D+06 0.204890966415D-07 0.142643114102D+01 0.596046447754D-07
    0.955279886693D+00 0.203875000000D+03 0.193242749039D+01-0.802104839458D-08
    0.578595529398D-10 0.100000000000D+01 0.188600000000D+04 0.000000000000D+00
    0.200000000000D+01 0.000000000000D+00 0.139698386192D-08 0.620000000000D+02
    0.172818000000D+06 0.400000000000D+01 0.000000000000D+00 0.000000000000D+00
10 16  3  1  2  0  0.0 0.360179692507D-04-0.648014975013D-11 0.000000000000D+00
    0.410000000000D+02-0.172187500000D+02 0.448018661776D-08-0.224742203253D+01
   -0.953674316406D-06 0.120222044643D-02 0.871345400810D-05 0.515368268394D+04
    0.180000000000D+06-0.316649675369D-07 0.382011161670D+00 0.558793544769D-07
    0.959864749488D+00 0.212625000000D+03-0.286371698935D+01-0.792354433314D-08
   -0.159649507186D-09 0.000000000000D+00 0.188600000000D+04 0.000000000000D+00
    0.200000000000D+01 0.000000000000D+00 0.232830643654D-08 0.410000000000D+02
    0.172800000000D+06 0.400000000000D+01 0.000000000000D+00 0.000000000000D+00
13 16  3  1  2  0  0.0-0.111293047666D-06-0.261479726760D-11 0.000000000000D+00
    0.119000000000D+03 0.553125000000D+02 0.424481967092D-08 0.174180987909D+00
    0.278279185295D-05 0.464008760173D-02 0.842660665512D-05 0.515368391800D+04
    0.180000000000D+06-0.931322574616D-08 0.154587142992D+01-0.670552253723D-07
    0.971712827923D+00 0.221875000000D+03 0.198204157585D+01-0.797747515100D-08
    0.703600736366D-10 0.100000000000D+01 0.188600000000D+04 0.000000000000D+00
    0.102400000000D+04 0.630000000000D+02-0.111758708954D-07 0.119000000000D+03
    0.172818000000D+06 0.400000000000D+01 0.000000000000D+00 0.000000000000D+00
14 16  3  1  2  0  0.0 0.121537595987D-06-0.227373675443D-11 0.000000000000D+00
    0.940000000000D+02 0.600312500000D+02 0.428089260207D-08 0.199486279032D+01
    0.314414501190D-05 0.834629079327D-02 0.956840813160D-05 0.515373339272D+04
    0.180000000000D+06-0.149011611938D-07 0.150937375824D+01-0.245869159698D-06
    0.964212923841D+00 0.193562500000D+03-0.195112815799D+01-0.787604235449D-08
    0.116076263614D-09 0.000000000000D+00 0.188600000000D+04 0.000000000000D+00
    0.200000000000D+01 0.000000000000D+00-0.931322574616D-08 0.940000000000D+02
    0.172800000000D+06 0.400000000000D+01 0.000000000000D+00 0.000000000000D+00
15 16  3  1  2  0  0.0-0.299582723528D-03-0.181898940355D-11 0.000000000000D+00
    0.100000000000D+02 0.492812500000D+02 0.512557064345D-08 0.116650244606D+01
    0.263936817646D-05 0.807579734828D-02 0.878050923348D-05 0.515380761147D+04
    0.180000000000D+06-0.614672899246D-07 0.137599249934D+01 0.689178705216D-07
    0.931061721155D+00 0.194937500000D+03 0.485643387488D+00-0.835606234925D-08
   -0.903609067516D-10 0.000000000000D+00 0.188600000000D+04 0.000000000000D+00
    0.200000000000D+01 0.000000000000D+00-0.107102096081D-07 0.100000000000D+02
    0.172800000000D+06 0.400000000000D+01 0.000000000000D+00 0.000000000000D+00
16 16  3  1  2  0  0.0-0.357637181878D-04 0.306954461848D-11 0.000000000000D+00
    0.260000000000D+02-0.409062500000D+02 0.394659296287D-08 0.301595596450D+01
   -0.213086605072D-05 0.861706107389D-02 0.673159956932D-05 0.515371855927D+04
    0.180000000000D+06-0.100582838059D-06-0.268611326029D+01-0.391155481338D-07
    0.991033746453D+00 0.267250000000D+03 0.333609893814D+00-0.774675125471D-08
   -0.142505935944D-09 0.000000000000D+00 0.188600000000D+04 0.000000000000D+00
    0.200000000000D+01 0.000000000000D+00-0.102445483208D-07 0.260000000000D+02
    0.174750000000D+06 0.400000000000D+01 0.000000000000D+00 0.000000000000D+00
17 16  3  1  2  0  0.0-0.201403163374D-03-0.454747350886D-12 0.000000000000D+00
    0.560000000000D+02-0.261875000000D+02 0.409052752975D-08 0.206039072393D+01
   -0.162236392498D-05 0.110003993614D-01 0.811554491520D-05 0.515365220070D+04
    0.180000000000D+06 0.130385160446D-07-0.166342926364D+01-0.251457095146D-06
    0.975189307909D+00 0.230125000000D+03-0.194322745824D+01-0.776425198369D-08
    0.875036448780D-10 0.100000000000D+01 0.188600000000D+04 0.000000000000D+00
    0.200000000000D+01 0.000000000000D+00-0.107102096081D-07 0.560000000000D+02
    0.175248000000D+06 0.400000000000D+01 0.000000000000D+00 0.000000000000D+00
18 16  3  1  2  0  0.0 0.488804653287D-03 0.397903932026D-11 0.000000000000D+00
    0.830000000000D+02-0.239687500000D+02 0.517807283038D-08-0.266363946071D+01
   -0.129267573357D-05 0.167293173727D-01 0.804662704468D-05 0.515366361237D+04
    0.180000000000D+06 0.189989805222D-06 0.356170088942D+00-0.558793544769D-07
    0.925349464931D+00 0.202656250000D+03-0.190877531323D+01-0.805212111745D-08
   -0.109647424398D-09 0.000000000000D+00 0.188600000000D+04 0.000000000000D+00
    0.200000000000D+01 0.000000000000D+00-0.111758708954D-07 0.830000000000D+02
    0.172800000000D+06 0.400000000000D+01 0.000000000000D+00 0.000000000000D+00
19 16  3  1  2  0  0.0-0.525050796568D-03-0.227373675443D-12 0.000000000000D+00
    0.670000000000D+02-0.157187500000D+02 0.428553565262D-08-0.109345908095D+01
   -0.745058059692D-06 0.107293329202D-01 0.812858343124D-05 0.515360613060D+04
    0.180000000000D+06 0.234693288803D-06-0.161439724987D+01 0.875443220139D-07
    0.972264719620D+00 0.228062500000D+03 0.717637603207D+00-0.794854537453D-08
    0.127862468842D-09 0.100000000000D+01 0.188600000000D+04 0.000000000000D+00
    0.200000000000D+01 0.000000000000D+00-0.153668224812D-07 0.670000000000D+02
    0.179442000000D+06 0.400000000000D+01 0.000000000000D+00 0.000000000000D+00
20 16  3  1  2  0  0.0 0.396251678467D-03 0.261479726760D-11 0.000000000000D+00
    0.520000000000D+02-0.236250000000D+02 0.538236705433D-08 0.130364048737D+01
   -0.134110450745D-05 0.483371410519D-02 0.809878110886D-05 0.515369692993D+04
    0.180000000000D+06-0.316649675369D-07 0.304245791047D+00-0.633299350738D-07
    0.926614062521D+00 0.209218750000D+03 0.133850719118D+01-0.846999566646D-08
   -0.245010205658D-09 0.100000000000D+01 0.188600000000D+04 0.000000000000D+00
    0.200000000000D+01 0.000000000000D+00-0.838190317154D-08 0.520000000000D+02
    0.172926000000D+06 0.400000000000D+01 0.000000000000D+00 0.000000000000D+00
21 16  3  1  2  0  0.0-0.512812286615D-03-0.170530256582D-11 0.000000000000D+00
    0.750000000000D+02-0.503125000000D+01 0.510235539072D-08-0.179372674097D+01
   -0.987201929092D-07 0.232205797220D-01 0.600144267082D-05 0.515365629387D+04
    0.180000000000D+06 0.504776835442D-06-0.685782367463D+00 0.180676579475D-06
    0.935843402023D+00 0.243750000000D+03-0.182297952152D+01-0.812212403335D-08
    0.138934358602D-09 0.000000000000D+00 0.188600000000D+04 0.000000000000D+00
    0.200000000000D+01 0.000000000000D+00-0.116415321827D-07 0.750000000000D+02
    0.173670000000D+06 0.400000000000D+01 0.000000000000D+00 0.000000000000D+00
22 16  3  1  2  0  0.0 0.389076769352D-03-0.625277607469D-11 0.000000000000D+00
    0.330000000000D+02-0.219687500000D+02 0.541665419682D-08 0.225886463396D+01
   -0.127218663693D-05 0.770428020041D-02 0.802986323833D-05 0.515507813835D+04
    0.180000000000D+06 0.745058059692D-07 0.356928960141D+00-0.163912773132D-06
    0.923205163498D+00 0.203500000000D+03-0.201617388455D+01-0.835499087605D-08
   -0.170007081477D-09 0.000000000000D+00 0.188600000000D+04 0.000000000000D+00
    0.200000000000D+01 0.000000000000D+00-0.176951289177D-07 0.330000000000D+02
    0.172800000000D+06 0.400000000000D+01 0.000000000000D+00 0.000000000000D+00
24 16  3  1  2  0  0.0-0.132075510919D-04-0.568434188608D-12 0.000000000000D+00
    0.690000000000D+02 0.413437500000D+02 0.499592238594D-08 0.162312937717D+00
    0.219047069550D-05 0.432559207548D-02 0.480003654957D-05 0.515363116264D+04
    0.180000000000D+06 0.109896063805D-06 0.245890457584D+01 0.335276126862D-07
    0.950388677149D+00 0.283125000000D+03 0.378813992243D+00-0.845785230350D-08
    0.660741808263D-10 0.000000000000D+00 0.188600000000D+04 0.000000000000D+00
    0.200000000000D+01 0.000000000000D+00 0.232830643654D-08 0.690000000000D+02
    0.172800000000D+06 0.400000000000D+01 0.000000000000D+00 0.000000000000D+00
